SatCatId,ObjectName,LaunchYear,OrbitalPeriod,LaunchMass,StatusCode,Inclination,Status,UcsData,OrbitClassEstimated,LaunchSiteCountry,Owner,UseType,Purpose,LaunchVehicleClass,TLE1,TLE2,MeanMotion,Eccentricity,OrbitClass
53012,STARLINK-4271,2022,95.44,260.0,+,53.22,Active,1,LEO,USA,USA,Commercial,Communications,Falcon,1 53012U 22076AC  25170.34461776  .00000591  00000+0  55220-4 0  9993,2 53012  53.2155 196.3207 0001045  74.8865 285.2243 15.08840152163099,15.08840152,0.0001045,LEO
53013,STARLINK-4177,2022,95.44,260.0,+,53.22,Active,1,LEO,USA,USA,Commercial,Communications,Falcon,1 53013U 22076AD  25170.32345989 -.00000639  00000+0 -22066-4 0  9996,2 53013  53.2158 186.4174 0001289  74.4690 285.6445 15.08838119163221,15.08838119,0.0001289,LEO
53014,STARLINK-4183,2022,95.44,260.0,+,53.22,Active,1,LEO,USA,USA,Commercial,Communications,Falcon,1 53014U 22076AE  25170.33819779  .00000270  00000+0  35022-4 0  9996,2 53014  53.2155 186.3522 0001122  79.9453 280.1665 15.08841389163696,15.08841389,0.0001122,LEO
53015,STARLINK-4262,2022,95.44,260.0,+,53.22,Active,1,LEO,USA,USA,Commercial,Communications,Falcon,1 53015U 22076AF  25170.31610325 -.00000013  00000+0  17275-4 0  9997,2 53015  53.2159 186.4504 0000960  78.2097 281.9003 15.08839790163224,15.0883979,9.6e-05,LEO
53016,STARLINK-4283,2022,95.44,260.0,+,53.22,Active,1,LEO,USA,USA,Commercial,Communications,Falcon,1 53016U 22076AG  25170.06218468  .00000241  00000+0  33212-4 0  9993,2 53016  53.2156 187.5908 0000942  69.9422 290.1672 15.08847902163184,15.08847902,9.42e-05,LEO
53017,STARLINK-4281,2022,95.44,260.0,+,53.22,Active,1,LEO,USA,USA,Commercial,Communications,Falcon,1 53017U 22076AH  25170.04747943  .00000746  00000+0  64974-4 0  9996,2 53017  53.2156 187.6540 0001023  76.8057 283.3049 15.08833764163194,15.08833764,0.0001023,LEO
53018,STARLINK-4279,2022,95.44,260.0,+,53.22,Active,1,LEO,USA,USA,Commercial,Communications,Falcon,1 53018U 22076AJ  25170.34925448  .00000072  00000+0  22581-4 0  9998,2 53018  53.2157 186.5608 0000987  82.4698 277.6406 15.08836200163226,15.088362,9.87e-05,LEO
53019,STARLINK-4282,2022,95.44,260.0,+,53.22,Active,1,LEO,USA,USA,Commercial,Communications,Falcon,1 53019U 22076AK  25170.43754124  .00000435  00000+0  45432-4 0  9993,2 53019  53.2156 185.9027 0001132  83.7017 276.4104 15.08839254163242,15.08839254,0.0001132,LEO
53020,STARLINK-4287,2022,95.44,260.0,+,53.22,Active,1,LEO,USA,USA,Commercial,Communications,Falcon,1 53020U 22076AL  25170.31979537  .00000699  00000+0  62019-4 0  9991,2 53020  53.2156 186.4335 0001126  84.6337 275.4783 15.08842040163227,15.0884204,0.0001126,LEO
53022,STARLINK-4216,2022,95.43,260.0,+,53.22,Active,1,LEO,USA,USA,Commercial,Communications,Falcon,1 53022U 22076AN  25170.50746246 -.00000304  00000+0 -10194-5 0  9996,2 53022  53.2155 185.5880 0001418  87.4934 272.6221 15.08826555163253,15.08826555,0.0001418,LEO
53023,STARLINK-4284,2022,95.44,260.0,+,53.22,Active,1,LEO,USA,USA,Commercial,Communications,Falcon,1 53023U 22076AP  25170.42281905 -.00000080  00000+0  13026-4 0  9990,2 53023  53.2153 185.9605 0001074  89.4125 270.6990 15.08839313163249,15.08839313,0.0001074,LEO
53024,STARLINK-4289,2022,95.44,260.0,+,53.22,Active,1,LEO,USA,USA,Commercial,Communications,Falcon,1 53024U 22076AQ  25170.02906259  .00000389  00000+0  42556-4 0  9994,2 53024  53.2156 187.7377 0001293  88.0074 272.1066 15.08839590163181,15.0883959,0.0001293,LEO
53025,STARLINK-4218,2022,95.44,260.0,+,53.22,Active,1,LEO,USA,USA,Commercial,Communications,Falcon,1 53025U 22076AR  25170.41914549 -.00000689  00000+0 -25234-4 0  9998,2 53025  53.2153 185.9873 0001224  81.3253 278.7878 15.08834033163246,15.08834033,0.0001224,LEO
53026,STARLINK-4119,2022,95.44,260.0,+,53.22,Active,1,LEO,USA,USA,Commercial,Communications,Falcon,1 53026U 22076AS  25170.42376644  .00000268  00000+0  34940-4 0  9993,2 53026  53.2153 185.8598 0000910  71.8398 288.2693 15.08838349163240,15.08838349,9.1e-05,LEO
53027,STARLINK-4158,2022,95.44,260.0,+,53.22,Active,1,LEO,USA,USA,Commercial,Communications,Falcon,1 53027U 22076AT  25170.34186575 -.00000055  00000+0  14632-4 0  9998,2 53027  53.2155 186.3348 0001072  85.9968 274.1147 15.08834549163236,15.08834549,0.0001072,LEO
53029,STARLINK-4143,2022,95.44,260.0,+,53.22,Active,1,LEO,USA,USA,Commercial,Communications,Falcon,1 53029U 22076AV  25170.39430588  .00000502  00000+0  49629-4 0  9991,2 53029  53.2155 176.0997 0001443  97.2683 262.8473 15.08826572163374,15.08826572,0.0001443,LEO
53030,STARLINK-4160,2022,95.44,260.0,+,53.21,Active,1,LEO,USA,USA,Commercial,Communications,Falcon,1 53030U 22076AW  25170.30140723 -.00000192  00000+0  59940-5 0  9997,2 53030  53.2147 186.7083 0001212  82.8055 277.3075 15.08840600163229,15.088406,0.0001212,LEO
53031,STARLINK-4137,2022,95.44,260.0,+,53.22,Active,1,LEO,USA,USA,Commercial,Communications,Falcon,1 53031U 22076AX  25170.31702788 -.00000816  00000+0 -33192-4 0  9998,2 53031  53.2156 176.4466 0001130  82.0043 278.1077 15.08833665163368,15.08833665,0.000113,LEO
53032,STARLINK-4115,2022,95.44,260.0,+,53.22,Active,1,LEO,USA,USA,Commercial,Communications,Falcon,1 53032U 22076AY  25170.27930095  .00000044  00000+0  20875-4 0  9993,2 53032  53.2157 186.6163 0001188  81.0733 279.0393 15.08837234163698,15.08837234,0.0001188,LEO
53033,STARLINK-4167,2022,95.44,260.0,+,53.22,Active,1,LEO,USA,USA,Commercial,Communications,Falcon,1 53033U 22076AZ  25170.38694333  .00000421  00000+0  44543-4 0  9995,2 53033  53.2162 176.1335 0001028  92.5490 267.5620 15.08826767163379,15.08826767,0.0001028,LEO
53034,STARLINK-4151,2022,95.44,260.0,+,53.22,Active,1,LEO,USA,USA,Commercial,Communications,Falcon,1 53034U 22076BA  25170.39527173 -.00000883  00000+0 -37401-4 0  9993,2 53034  53.2155 176.1446 0001595 104.2038 255.9132 15.08823450163378,15.0882345,0.0001595,LEO
53035,STARLINK-4157,2022,95.44,260.0,+,53.22,Active,1,LEO,USA,USA,Commercial,Communications,Falcon,1 53035U 22076BB  25170.31334445 -.00000384  00000+0 -60671-5 0  9996,2 53035  53.2155 176.4634 0001135  57.8613 302.2489 15.08833851163369,15.08833851,0.0001135,LEO
53036,STARLINK-4155,2022,95.44,260.0,+,53.22,Active,1,LEO,USA,USA,Commercial,Communications,Falcon,1 53036U 22076BC  25170.30966553 -.00000649  00000+0 -22690-4 0  9999,2 53036  53.2156 176.4793 0001319  85.7955 274.3188 15.08836919163363,15.08836919,0.0001319,LEO
53037,STARLINK-4153,2022,95.44,260.0,+,53.22,Active,1,LEO,USA,USA,Commercial,Communications,Falcon,1 53037U 22076BD  25170.04102195 -.00000966  00000+0 -42591-4 0  9999,2 53037  53.2157 177.6854 0001176  81.8072 278.3053 15.08843840163326,15.0884384,0.0001176,LEO
53038,STARLINK-4156,2022,95.44,260.0,+,53.22,Active,1,LEO,USA,USA,Commercial,Communications,Falcon,1 53038U 22076BE  25170.30230214 -.00000718  00000+0 -27004-4 0  9990,2 53038  53.2158 176.5122 0001444  32.1899 327.9181 15.08834646163369,15.08834646,0.0001444,LEO
53043,STARLINK-4362,2022,95.92,260.0,+,97.66,Active,1,LEO,USA,USA,Commercial,Communications,Falcon,1 53043U 22077A   25170.58335648 -.00046899  00000+0 -36679-2 0  9990,2 53043  97.6558 352.1637 0003441  34.0909  60.2971 15.01287818  5721,15.01287818,0.0003441,LEO
53044,STARLINK-4349,2022,95.92,260.0,+,97.66,Active,1,LEO,USA,USA,Commercial,Communications,Falcon,1 53044U 22077B   25170.22894188 -.00000965  00000+0 -70560-4 0  9994,2 53044  97.6561 351.8094 0002381  55.7050 304.4399 15.01258829161391,15.01258829,0.0002381,LEO
53045,STARLINK-4350,2022,95.92,260.0,+,97.66,Active,1,LEO,USA,USA,Commercial,Communications,Falcon,1 53045U 22077C   25170.43445425  .00000049  00000+0  84358-5 0  9996,2 53045  97.6556 352.0013 0002789  38.6032 321.5391 15.01259649161429,15.01259649,0.0002789,LEO
53046,STARLINK-4331,2022,95.92,260.0,+,97.66,Active,1,LEO,USA,USA,Commercial,Communications,Falcon,1 53046U 22077D   25170.58335648 -.00044685  00000+0 -34939-2 0  9991,2 53046  97.6558 352.1506 0003046  40.8711  52.0669 15.01283927  5670,15.01283927,0.0003046,LEO
53047,STARLINK-4352,2022,95.92,260.0,+,97.65,Active,1,LEO,USA,USA,Commercial,Communications,Falcon,1 53047U 22077E   25170.47912670 -.00000642  00000+0 -45393-4 0  9999,2 53047  97.6547 352.0775 0001545 186.6652 173.4552 15.01259041161437,15.01259041,0.0001545,LEO
53048,STARLINK-4355,2022,95.92,260.0,+,97.65,Active,1,LEO,USA,USA,Commercial,Communications,Falcon,1 53048U 22077F   25170.22549291  .00000699  00000+0  59038-4 0  9999,2 53048  97.6548 351.8028 0002001  74.4179 285.7266 15.01256035161386,15.01256035,0.0002001,LEO
53049,STARLINK-4345,2022,95.92,260.0,+,97.65,Active,1,LEO,USA,USA,Commercial,Communications,Falcon,1 53049U 22077G   25170.21783150 -.00000449  00000+0 -30368-4 0  9993,2 53049  97.6548 351.7974 0001014 122.7361 237.3961 15.01259006161385,15.01259006,0.0001014,LEO
53050,STARLINK-4343,2022,95.92,260.0,+,97.66,Active,1,LEO,USA,USA,Commercial,Communications,Falcon,1 53050U 22077H   25170.22338635 -.00000154  00000+0 -73917-5 0  9991,2 53050  97.6550 351.8004 0001630  93.0310 267.1101 15.01260281161387,15.01260281,0.000163,LEO
53051,STARLINK-4336,2022,95.92,260.0,+,97.65,Active,1,LEO,USA,USA,Commercial,Communications,Falcon,1 53051U 22077J   25170.15858837 -.00000439  00000+0 -29621-4 0  9993,2 53051  97.6546 351.7197 0001967  54.2417 305.8990 15.01258270161375,15.0125827,0.0001967,LEO
53052,STARLINK-4341,2022,95.92,260.0,+,97.65,Active,1,LEO,USA,USA,Commercial,Communications,Falcon,1 53052U 22077K   25170.22154303  .00000381  00000+0  34283-4 0  9993,2 53052  97.6549 351.7973 0001539  93.7267 266.4133 15.01258514161380,15.01258514,0.0001539,LEO
53053,STARLINK-4337,2022,95.92,260.0,+,97.65,Active,1,LEO,USA,USA,Commercial,Communications,Falcon,1 53053U 22077L   25170.21412865 -.00000540  00000+0 -37438-4 0  9997,2 53053  97.6549 351.7875 0001922 176.6961 183.4277 15.01264375161963,15.01264375,0.0001922,LEO
